ONEWEB-0716             
1 55177U 23004AP  25044.39590103  .00000130  00000+0  30248-3 0  9992
2 55177  87.9054 103.2679 0001980 107.7261 252.4087 13.17649233103214
ONEWEB-0717             
1 55178U 23004AQ  25044.45495936  .00000076  00000+0  16133-3 0  9994
2 55178  87.9049 103.2171 0001487  76.7487 283.3810 13.17650288103278
ONEWEB-0719             
1 55179U 23004AR  25044.38915183  .00000099  00000+0  22286-3 0  9999
2 55179  87.9050 103.2148 0001811 107.9909 252.1420 13.17650837103217
ONEWEB-0530             
1 55796U 23029A   25044.61067082  .00000189  00000+0  43356-3 0  9994
2 55796  87.9294  11.6914 0001308  71.6789 288.4487 13.20771422 96651
ONEWEB-0534             
1 55797U 23029B   25044.59805138  .00000053  00000+0  98446-4 0  9995
2 55797  87.9294  11.7014 0001845  86.8168 273.3176 13.20770503 96656
ONEWEB-0556             
1 55798U 23029C   25044.83162244  .00000070  00000+0  13912-3 0  9990
2 55798  87.9294  11.6476 0001191 103.6298 256.4968 13.20771528 96686
ONEWEB-0562             
1 55799U 23029D   25044.97051396 -.00000075  00000+0 -21579-3 0  9996
2 55799  87.9295  11.6122 0000849  75.3831 284.7396 13.20771122 96705
ONEWEB-0563             
1 55800U 23029E   25044.88844798 -.00000004  00000+0 -41036-4 0  9998
2 55800  87.9294  11.6431 0001982  93.1445 266.9915 13.20771529 96685
